NORAD_CAT_ID,OBJECT_NAME,OBJECT_TYPE,EPOCH,MEAN_MOTION,ECCENTRICITY,INCLINATION,RA_OF_ASC_NODE,ARG_OF_PERICENTER,MEAN_ANOMALY,BSTAR,MEAN_MOTION_DOT,MEAN_MOTION_DDOT,TLE_LINE0,TLE_LINE1,TLE_LINE2,SEMIMAJOR_AXIS,PERIOD,APOGEE,PERIGEE,DECAYED
52358.0,STARLINK-3837,PAYLOAD,2022-11-11 19:31:57,15.08827281,0.0002592,53.2181,248.4238,26.9872,333.1255,0.00047158,7.222e-05,0.0,0 STARLINK-3837,1 52358U 22045AD  22315.81386223  .00007222  00000-0  47158-3 0  9993,2 52358  53.2181 248.4238 0002592  26.9872 333.1255 15.08827281 32535,6917.919,95.438,541.577,537.991,0.0
52358.0,STARLINK-3837,PAYLOAD,2022-11-12 05:04:16,15.08856002,0.0002697,53.2175,246.6402,27.2446,332.8687,0.0010009,0.00015684,0.0,0 STARLINK-3837,1 52358U 22045AD  22316.21129720  .00015684  00000-0  10009-2 0  9990,2 52358  53.2175 246.6402 0002697  27.2446 332.8687 15.08856002 32592,6917.831,95.437,541.562,537.831,0.0
52358.0,STARLINK-3837,PAYLOAD,2022-11-12 19:22:43,15.08868481,0.0002733,53.217,243.9641,29.2831,330.8314,0.00077552,0.00012086,0.0,0 STARLINK-3837,1 52358U 22045AD  22316.80745042  .00012086  00000-0  77552-3 0  9996,2 52358  53.2170 243.9641 0002733  29.2831 330.8314 15.08868481 32682,6917.793000000002,95.436,541.549,537.768,0.0
52358.0,STARLINK-3837,PAYLOAD,2022-11-13 04:55:02,15.08857954,0.0002718,53.2177,242.1798,27.583,332.5306,0.00018707,2.692e-05,0.0,0 STARLINK-3837,1 52358U 22045AD  22317.20488733  .00002692  00000-0  18707-3 0  9991,2 52358  53.2177 242.1798 0002718  27.5830 332.5306 15.08857954 32746,6917.826,95.436,541.571,537.81,0.0
52358.0,STARLINK-3837,PAYLOAD,2022-11-13 19:13:31,15.08838815,0.0002787,53.2169,239.5024,31.4183,328.6975,-7.5844e-05,-1.495e-05,0.0,0 STARLINK-3837,1 52358U 22045AD  22317.80105448 -.00001495  00000-0 -75844-4 0  9994,2 52358  53.2169 239.5024 0002787  31.4183 328.6975 15.08838815 32833,6917.884,95.438,541.677,537.821,0.0
52358.0,STARLINK-3837,PAYLOAD,2022-11-14 04:45:50,15.08832969,0.0002773,53.218,237.7186,30.9256,329.1899,-2.0602e-05,-6.16e-06,0.0,0 STARLINK-3837,1 52358U 22045AD  22318.19849751 -.00000616  00000-0 -20602-4 0  9995,2 52358  53.2180 237.7186 0002773  30.9256 329.1899 15.08832969 32896,6917.901999999999,95.438,541.685,537.849,0.0
52358.0,STARLINK-3837,PAYLOAD,2022-11-14 19:04:18,15.08850101,0.0002723,53.2178,235.0438,24.1005,336.0114,0.00043069,6.575e-05,0.0,0 STARLINK-3837,1 52358U 22045AD  22318.79465297  .00006575  00000-0  43069-3 0  9999,2 52358  53.2178 235.0438 0002723  24.1005 336.0114 15.08850101 32981,6917.85,95.437,541.5980000000002,537.831,0.0
52358.0,STARLINK-3837,PAYLOAD,2022-11-14 22:15:04,15.08852027,0.000273,53.2177,234.4492,25.0401,335.0724,0.00044487,6.801e-05,0.0,0 STARLINK-3837,1 52358U 22045AD  22318.92713183  .00006801  00000-0  44487-3 0  9991,2 52358  53.2177 234.4492 0002730  25.0401 335.0724 15.08852027 33000,6917.844,95.437,541.597,537.82,0.0
52358.0,STARLINK-3837,PAYLOAD,2022-11-15 10:58:09,15.08846988,0.0002686,53.2174,232.0706,25.3749,334.7374,0.00021008,3.057e-05,0.0,0 STARLINK-3837,1 52358U 22045AD  22319.45705130  .00003057  00000-0  21008-3 0  9997,2 52358  53.2174 232.0706 0002686  25.3749 334.7374 15.08846988 33081,6917.859,95.437,541.582,537.866,0.0
52358.0,STARLINK-3837,PAYLOAD,2022-11-16 02:52:00,15.088383,0.0002741,53.2172,229.0965,25.6621,334.4507,-3.357e-05,-8.23e-06,0.0,0 STARLINK-3837,1 52358U 22045AD  22320.11945312 -.00000823  00000-0 -33570-4 0  9998,2 52358  53.2172 229.0965 0002741  25.6621 334.4507 15.08838300 33181,6917.886,95.438,541.6469999999998,537.854,0.0
52358.0,STARLINK-3837,PAYLOAD,2022-11-17 02:42:47,15.08848163,0.0002867,53.2169,224.6355,25.6618,334.4516,3.4064e-05,2.54e-06,0.0,0 STARLINK-3837,1 52358U 22045AD  22321.11304857  .00000254  00000-0  34064-4 0  9997,2 52358  53.2169 224.6355 0002867  25.6618 334.4516 15.08848163 33331,6917.855,95.437,541.7040000000002,537.737,0.0
52358.0,STARLINK-3837,PAYLOAD,2022-11-17 04:18:10,15.08850397,0.0002827,53.2172,224.3378,28.1691,331.9454,4.2889e-05,3.94e-06,0.0,0 STARLINK-3837,1 52358U 22045AD  22321.17928745  .00000394  00000-0  42889-4 0  9990,2 52358  53.2172 224.3378 0002827  28.1691 331.9454 15.08850397 33348,6917.849,95.437,541.669,537.758,0.0
52358.0,STARLINK-3837,PAYLOAD,2022-11-18 02:33:34,15.08840752,0.0003057,53.218,220.1736,31.8196,328.2981,0.00015089,2.114e-05,0.0,0 STARLINK-3837,1 52358U 22045AD  22322.10665293  .00002114  00000-0  15089-3 0  9993,2 52358  53.2180 220.1736 0003057  31.8196 328.2981 15.08840752 33489,6917.878000000002,95.438,541.8580000000002,537.628,0.0
52358.0,STARLINK-3837,PAYLOAD,2022-11-18 10:30:30,15.08848366,0.0002999,53.218,218.6866,32.4088,327.7088,0.0002339,3.437e-05,0.0,0 STARLINK-3837,1 52358U 22045AD  22322.43784848  .00003437  00000-0  23390-3 0  9990,2 52358  53.2180 218.6866 0002999  32.4088 327.7088 15.08848366 33533,6917.855,95.437,541.794,537.645,0.0
52358.0,STARLINK-3837,PAYLOAD,2022-11-18 16:52:02,15.08848197,0.0002997,53.2168,217.5,31.8121,328.3052,6.9459e-05,8.17e-06,0.0,0 STARLINK-3837,1 52358U 22045AD  22322.70280806  .00000817  00000-0  69459-4 0  9991,2 52358  53.2168 217.5000 0002997  31.8121 328.3052 15.08848197 33570,6917.855,95.437,541.794,537.6469999999998,0.0
52358.0,STARLINK-3837,PAYLOAD,2022-11-19 10:21:17,15.08844668,0.0002886,53.2159,214.2286,31.6304,328.4861,2.8645e-05,1.67e-06,0.0,0 STARLINK-3837,1 52358U 22045AD  22323.43144783  .00000167  00000-0  28645-4 0  9995,2 52358  53.2159 214.2286 0002886  31.6304 328.4861 15.08844668 33688,6917.866,95.437,541.7280000000002,537.735,0.0
52358.0,STARLINK-3837,PAYLOAD,2022-11-20 02:15:08,15.08846198,0.0002853,53.2166,211.2552,31.8928,328.2236,5.0711e-05,5.19e-06,0.0,0 STARLINK-3837,1 52358U 22045AD  22324.09384586  .00000519  00000-0  50711-4 0  9995,2 52358  53.2166 211.2552 0002853  31.8928 328.2236 15.08846198 33782,6917.861,95.437,541.7,537.753,0.0
52358.0,STARLINK-3837,PAYLOAD,2022-11-20 19:44:22,15.08842118,0.0002927,53.217,207.984,32.709,327.4083,7.6291e-05,9.26e-06,0.0,0 STARLINK-3837,1 52358U 22045AD  22324.82248682  .00000926  00000-0  76291-4 0  9995,2 52358  53.2170 207.9840 0002927  32.7090 327.4083 15.08842118 33892,6917.874,95.437,541.764,537.714,0.0
52358.0,STARLINK-3837,PAYLOAD,2022-11-21 02:05:55,15.08837163,0.0002885,53.2189,206.7955,29.247,330.8684,-2.7291e-05,-7.23e-06,0.0,0 STARLINK-3837,1 52358U 22045AD  22325.08745291 -.00000723  00000-0 -27291-4 0  9995,2 52358  53.2189 206.7955 0002885  29.2470 330.8684 15.08837163 33936,6917.889,95.438,541.75,537.758,0.0
52358.0,STARLINK-3837,PAYLOAD,2022-11-21 19:35:10,15.08834842,0.0003048,53.218,203.5263,26.2792,333.8354,2.4138e-05,9.5e-07,0.0,0 STARLINK-3837,1 52358U 22045AD  22325.81609561  .00000095  00000-0  24138-4 0  9992,2 52358  53.2180 203.5263 0003048  26.2792 333.8354 15.08834842 34041,6917.896,95.438,541.87,537.653,0.0
52358.0,STARLINK-3837,PAYLOAD,2022-11-22 01:56:42,15.08841269,0.0002947,53.2173,202.3346,33.0178,327.0998,8.620700000000001e-05,1.084e-05,0.0,0 STARLINK-3837,1 52358U 22045AD  22326.08105078  .00001084  00000-0  86207-4 0  9990,2 52358  53.2173 202.3346 0002947  33.0178 327.0998 15.08841269 34087,6917.877,95.437,541.78,537.703,0.0
52358.0,STARLINK-3837,PAYLOAD,2022-11-22 21:01:21,15.08787732,0.0003183,53.2174,198.7663,35.8744,324.2461,0.00083828,0.0001306,0.0,0 STARLINK-3837,1 52358U 22045AD  22326.87594882  .00013060  00000-0  83828-3 0  9994,2 52358  53.2174 198.7663 0003183  35.8744 324.2461 15.08787732 34202,6918.04,95.441,542.107,537.703,0.0
52358.0,STARLINK-3837,PAYLOAD,2022-11-23 01:47:30,15.08838725,0.0002923,53.217,197.8745,30.9029,329.2135,-9.4064e-06,-4.38e-06,0.0,0 STARLINK-3837,1 52358U 22045AD  22327.07465389 -.00000438  00000-0 -94064-5 0  9999,2 52358  53.2170 197.8745 0002923  30.9029 329.2135 15.08838725 34237,6917.884,95.438,541.771,537.727,0.0
52358.0,STARLINK-3837,PAYLOAD,2022-11-23 08:09:02,15.08836898,0.0002968,53.217,196.6852,31.075,329.0417,0.00012562,1.711e-05,0.0,0 STARLINK-3837,1 52358U 22045AD  22327.33961612  .00001711  00000-0  12562-3 0  9992,2 52358  53.2170 196.6852 0002968  31.0750 329.0417 15.08836898 34279,6917.89,95.438,541.808,537.702,0.0
52358.0,STARLINK-3837,PAYLOAD,2022-11-23 19:16:45,15.08831462,0.0002924,53.2184,194.6037,32.0679,328.0490000000001,-3.3568e-06,-3.42e-06,0.0,0 STARLINK-3837,1 52358U 22045AD  22327.80330491 -.00000342  00000-0 -33568-5 0  9991,2 52358  53.2184 194.6037 0002924  32.0679 328.0490 15.08831462 34340,6917.906,95.438,541.794,537.749,0.0
52358.0,STARLINK-3837,PAYLOAD,2022-11-24 07:59:50,15.08831755,0.0002969,53.2185,192.2249,32.4469,327.6706,-2.5632e-05,-6.96e-06,0.0,0 STARLINK-3837,1 52358U 22045AD  22328.33322813 -.00000696  00000-0 -25632-4 0  9993,2 52358  53.2185 192.2249 0002969  32.4469 327.6706 15.08831755 34429,6917.906,95.438,541.825,537.717,0.0
52358.0,STARLINK-3837,PAYLOAD,2022-11-24 22:18:19,15.08832257,0.000288,53.2188,189.5487,34.4694,325.6484,3.4684e-05,2.63e-06,0.0,0 STARLINK-3837,1 52358U 22045AD  22328.92938885  .00000263  00000-0  34684-4 0  9995,2 52358  53.2188 189.5487 0002880  34.4694 325.6484 15.08832257 34518,6917.904,95.438,541.761,537.7769999999998,0.0
52358.0,STARLINK-3837,PAYLOAD,2022-11-25 07:50:37,15.08835412,0.0002943,53.2187,187.7647,34.7757,325.3427,5.6261e-05,6.07e-06,0.0,0 STARLINK-3837,1 52358U 22045AD  22329.32682787  .00000607  00000-0  56261-4 0  9994,2 52358  53.2187 187.7647 0002943  34.7757 325.3427 15.08835412 34574,6917.894,95.438,541.795,537.7230000000002,0.0
52358.0,STARLINK-3837,PAYLOAD,2022-11-25 18:58:19,15.08836621,0.0002953,53.2182,185.6824,34.464,325.6543,0.00013669,1.887e-05,0.0,0 STARLINK-3837,1 52358U 22045AD  22329.79050750  .00001887  00000-0  13669-3 0  9999,2 52358  53.2182 185.6824 0002953  34.4640 325.6543 15.08836621 34645,6917.891,95.438,541.799,537.7130000000002,0.0
